ONEWEB-0102             
1 47258U 20100A   24180.82819324 -.00000339  00000+0 -97735-3 0  9991
2 47258  87.8947 133.7271 0001951  78.2108 281.9239 13.12441887170503
ONEWEB-0109             
1 47259U 20100B   24180.83632006 -.00000120  00000+0 -36787-3 0  9991
2 47259  87.8950 133.6901 0001986  78.1611 281.9740 13.12444354170333
ONEWEB-0110             
1 47260U 20100C   24180.40485393  .00000513  00000+0  13907-2 0  9993
2 47260  87.8942 133.7811 0002112  77.1360 283.0004 13.12443335170445
ONEWEB-0111             
1 47261U 20100D   24180.89308756 -.00000373  00000+0 -10736-2 0  9997
2 47261  87.8949 133.6804 0002029  79.5037 280.6320 13.12442871170345
ONEWEB-0114             
1 47262U 20100E   24180.39022150  .00000166  00000+0  42687-3 0  9993
2 47262  87.8942 133.7955 0001599  73.5286 286.6018 13.12450159170234
ONEWEB-0117             
1 47263U 20100F   24180.83956357 -.00000002  00000+0 -41756-4 0  9996
2 47263  87.8948 133.6820 0002108  81.4318 278.7049 13.12443157170306
ONEWEB-0118             
1 47264U 20100G   24180.56704001  .00000256  00000+0  67661-3 0  9995
2 47264  87.8946 133.7399 0001636  87.9724 272.1591 13.12440434170466
ONEWEB-0119             
1 47265U 20100H   24180.82332854 -.00000373  00000+0 -10734-2 0  9998
2 47265  87.8949 133.7272 0002099  80.0116 280.1250 13.12443902170478
